[{"OBJECT_NAME":"STARLINK-30294","OBJECT_ID":"2023-122V","EPOCH":"2026-03-09T22:00:01.999584","MEAN_MOTION":15.18636103,"ECCENTRICITY":0.0001234,"INCLINATION":43.0013,"RA_OF_ASC_NODE":79.6863,"ARG_OF_PERICENTER":285.8552,"MEAN_ANOMALY":215.8624,"EPHEMERIS_TYPE":0,"CLASSIFICATION_TYPE":"U","NORAD_CAT_ID":57651,"ELEMENT_SET_NO":999,"REV_AT_EPOCH":567,"BSTAR":0.056254533,"MEAN_MOTION_DOT":0.01284505,"MEAN_MOTION_DDOT":0},{"OBJECT_NAME":"OBJECT C","OBJECT_ID":"2024-173C","EPOCH":"2026-03-09T23:00:13.423680","MEAN_MOTION":15.43533019,"ECCENTRICITY":0.0013225,"INCLINATION":97.3461,"RA_OF_ASC_NODE":150.2678,"ARG_OF_PERICENTER":142.6968,"MEAN_ANOMALY":217.5201,"EPHEMERIS_TYPE":0,"CLASSIFICATION_TYPE":"U","NORAD_CAT_ID":61229,"ELEMENT_SET_NO":999,"REV_AT_EPOCH":8139,"BSTAR":0.00079015478,"MEAN_MOTION_DOT":0.00035589,"MEAN_MOTION_DDOT":0}]
